start=new Date('2022-03-08T00:00:00.000Z').valueOf();
sats=[{"MEAN_ANOMALY":"278.3847","PERIOD":"95.592","ARG_OF_PERICENTER":"81.7310","FILE":"3349821","RA_OF_ASC_NODE":"228.5606","OBJECT_TYPE":"PAYLOAD","MEAN_MOTION_DDOT":"0.0000000000000","OBJECT_NAME":"STARLINK-2256","INCLINATION":"53.0544","MEAN_ELEMENT_THEORY":"SGP4","CENTER_NAME":"EARTH","CLASSIFICATION_TYPE":"U","TLE_LINE2":"2 48598  53.0544 228.5606 0001482  81.7310 278.3847 15.06394419 45034","RCS_SIZE":"LARGE","EPHEMERIS_TYPE":"0","BSTAR":"-0.00001915600000","TIME_SYSTEM":"UTC","APOAPSIS":"548.257","GP_ID":"198190789","TLE_LINE1":"1 48598U 21041AX  22066.85008914 -.00000567  00000-0 -19156-4 0  9999","COUNTRY_CODE":"US","EPOCH":"2022-03-07T20:24:07.701696","ECCENTRICITY":"0.00014820","DECAY_DATE":null,"NORAD_CAT_ID":"48598","PERIAPSIS":"546.204","REV_AT_EPOCH":"4503","REF_FRAME":"TEME","SEMIMAJOR_AXIS":"6925.366","LAUNCH_DATE":"2021-05-15","SITE":"AFETR","MEAN_MOTION":"15.06394419","ELEMENT_SET_NO":"999","MEAN_MOTION_DOT":"-0.00000567","OBJECT_ID":"2021-041AX"},{"INCLINATION":"53.0540","OBJECT_NAME":"STARLINK-2274","CENTER_NAME":"EARTH","MEAN_ELEMENT_THEORY":"SGP4","CLASSIFICATION_TYPE":"U","TLE_LINE2":"2 48599  53.0540 203.7320 0001394  73.6368 286.4774 15.06385460 46197","RCS_SIZE":"LARGE","EPHEMERIS_TYPE":"0","BSTAR":"-0.00017315000000","MEAN_ANOMALY":"286.4774","PERIOD":"95.593","ARG_OF_PERICENTER":"73.6368","FILE":"3349821","OBJECT_TYPE":"PAYLOAD","RA_OF_ASC_NODE":"203.7320","MEAN_MOTION_DDOT":"0.0000000000000","DECAY_DATE":null,"NORAD_CAT_ID":"48599","REV_AT_EPOCH":"4619","PERIAPSIS":"546.293","REF_FRAME":"TEME","SEMIMAJOR_AXIS":"6925.393","LAUNCH_DATE":"2021-05-15","SITE":"AFETR","MEAN_MOTION":"15.06385460","ELEMENT_SET_NO":"999","MEAN_MOTION_DOT":"-0.00002858","OBJECT_ID":"2021-041AY","TIME_SYSTEM":"UTC","APOAPSIS":"548.224","COUNTRY_CODE":"US","TLE_LINE1":"1 48599U 21041AY  22066.80999684 -.00002858  00000-0 -17315-3 0  9997","GP_ID":"198190540","EPOCH":"2022-03-07T19:26:23.726976","ECCENTRICITY":"0.00013940"},{"REF_FRAME":"TEME","SEMIMAJOR_AXIS":"6925.399","LAUNCH_DATE":"2021-05-15","SITE":"AFETR","MEAN_MOTION":"15.06383665","ELEMENT_SET_NO":"999","MEAN_MOTION_DOT":"0.00003642","OBJECT_ID":"2021-041AZ","DECAY_DATE":null,"NORAD_CAT_ID":"48600","PERIAPSIS":"546.351","REV_AT_EPOCH":"4597","TLE_LINE1":"1 48600U 21041AZ  22066.78099790  .00003642  00000-0  26335-3 0  9998","GP_ID":"198189288","COUNTRY_CODE":"US","EPOCH":"2022-03-07T18:44:38.218560","ECCENTRICITY":"0.00013180","TIME_SYSTEM":"UTC","APOAPSIS":"548.176","TLE_LINE2":"2 48600  53.0536 218.8583 0001318  84.4591 275.6549 15.06383665 45977","RCS_SIZE":"LARGE","EPHEMERIS_TYPE":"0","BSTAR":"0.00026335000000","OBJECT_NAME":"STARLINK-2275","INCLINATION":"53.0536","MEAN_ELEMENT_THEORY":"SGP4","CENTER_NAME":"EARTH","CLASSIFICATION_TYPE":"U","FILE":"3349821","RA_OF_ASC_NODE":"218.8583","OBJECT_TYPE":"PAYLOAD","MEAN_MOTION_DDOT":"0.0000000000000","MEAN_ANOMALY":"275.6549","PERIOD":"95.593","ARG_OF_PERICENTER":"84.4591"},{"TIME_SYSTEM":"UTC","APOAPSIS":"548.185","EPOCH":"2022-03-07T20:14:10.161888","ECCENTRICITY":"0.00013760","TLE_LINE1":"1 48602U 21041BB  22066.84317317 -.00000508  00000-0 -15184-4 0  9996","GP_ID":"198190038","COUNTRY_CODE":"US","REV_AT_EPOCH":"4618","PERIAPSIS":"546.279","DECAY_DATE":null,"NORAD_CAT_ID":"48602","MEAN_MOTION_DOT":"-0.00000508","OBJECT_ID":"2021-041BB","REF_FRAME":"TEME","SEMIMAJOR_AXIS":"6925.367","LAUNCH_DATE":"2021-05-15","SITE":"AFETR","ELEMENT_SET_NO":"999","MEAN_MOTION":"15.06394004","MEAN_ANOMALY":"288.4595","PERIOD":"95.593","ARG_OF_PERICENTER":"71.6544","RA_OF_ASC_NODE":"203.5861","OBJECT_TYPE":"PAYLOAD","MEAN_MOTION_DDOT":"0.0000000000000","FILE":"3349821","CLASSIFICATION_TYPE":"U","OBJECT_NAME":"STARLINK-2713","INCLINATION":"53.0551","MEAN_ELEMENT_THEORY":"SGP4","CENTER_NAME":"EARTH","RCS_SIZE":"LARGE","EPHEMERIS_TYPE":"0","BSTAR":"-0.00001518400000","TLE_LINE2":"2 48602  53.0551 203.5861 0001376  71.6544 288.4595 15.06394004 46182"},{"PERIAPSIS":"546.203","REV_AT_EPOCH":"4625","NORAD_CAT_ID":"48603","DECAY_DATE":null,"MEAN_MOTION_DOT":"-0.00003336","OBJECT_ID":"2021-041BC","MEAN_MOTION":"15.06392758","ELEMENT_SET_NO":"999","SITE":"AFETR","LAUNCH_DATE":"2021-05-15","SEMIMAJOR_AXIS":"6925.371","REF_FRAME":"TEME","APOAPSIS":"548.268","TIME_SYSTEM":"UTC","ECCENTRICITY":"0.00014910","EPOCH":"2022-03-07T18:08:43.784448","TLE_LINE1":"1 48603U 21041BC  22066.75606232 -.00003336  00000-0 -20523-3 0  9998","COUNTRY_CODE":"US","GP_ID":"198190290","CLASSIFICATION_TYPE":"U","MEAN_ELEMENT_THEORY":"SGP4","CENTER_NAME":"EARTH","INCLINATION":"53.0529","OBJECT_NAME":"STARLINK-2714","BSTAR":"-0.00020523000000","EPHEMERIS_TYPE":"0","RCS_SIZE":"LARGE","TLE_LINE2":"2 48603  53.0529 198.9783 0001491  69.2385 290.8763 15.06392758 46258","ARG_OF_PERICENTER":"69.2385","PERIOD":"95.593","MEAN_ANOMALY":"290.8763","MEAN_MOTION_DDOT":"0.0000000000000","RA_OF_ASC_NODE":"198.9783","OBJECT_TYPE":"PAYLOAD","FILE":"3349821"},{"APOAPSIS":"548.310","TIME_SYSTEM":"UTC","EPOCH":"2022-03-07T19:46:58.773504","ECCENTRICITY":"0.00015120","GP_ID":"198191040","TLE_LINE1":"1 48604U 21041BD  22066.82429136 -.00002908  00000-0 -17649-3 0  9992","COUNTRY_CODE":"US","PERIAPSIS":"546.216","REV_AT_EPOCH":"4584","NORAD_CAT_ID":"48604","DECAY_DATE":null,"OBJECT_ID":"2021-041BD","MEAN_MOTION_DOT":"-0.00002908","SITE":"AFETR","ELEMENT_SET_NO":"999","MEAN_MOTION":"15.06383796","REF_FRAME":"TEME","SEMIMAJOR_AXIS":"6925.398","LAUNCH_DATE":"2021-05-15","ARG_OF_PERICENTER":"66.5317","MEAN_ANOMALY":"293.5830","PERIOD":"95.593","MEAN_MOTION_DDOT":"0.0000000000000","OBJECT_TYPE":"PAYLOAD","RA_OF_ASC_NODE":"228.6815","FILE":"3349821","CLASSIFICATION_TYPE":"U","INCLINATION":"53.0552","OBJECT_NAME":"STARLINK-2757","MEAN_ELEMENT_THEORY":"SGP4","CENTER_NAME":"EARTH","BSTAR":"-0.00017649000000","RCS_SIZE":"LARGE","EPHEMERIS_TYPE":"0","TLE_LINE2":"2 48604  53.0552 228.6815 0001512  66.5317 293.5830 15.06383796 45842"},{"EPHEMERIS_TYPE":"0","RCS_SIZE":"LARGE","BSTAR":"-0.00004908500000","TLE_LINE2":"2 48638  53.0552 204.1943 0001406  87.8352 272.2798 15.06400964 43276","CLASSIFICATION_TYPE":"U","MEAN_ELEMENT_THEORY":"SGP4","CENTER_NAME":"EARTH","OBJECT_NAME":"STARLINK-2758","INCLINATION":"53.0552","RA_OF_ASC_NODE":"204.1943","OBJECT_TYPE":"PAYLOAD","MEAN_MOTION_DDOT":"0.0000000000000","FILE":"3349821","PERIOD":"95.592","MEAN_ANOMALY":"272.2798","ARG_OF_PERICENTER":"87.8352","MEAN_MOTION_DOT":"-0.00001013","OBJECT_ID":"2021-044A","LAUNCH_DATE":"2021-05-26","SEMIMAJOR_AXIS":"6925.346","REF_FRAME":"TEME","MEAN_MOTION":"15.06400964","ELEMENT_SET_NO":"999","SITE":"AFETR","PERIAPSIS":"546.237","REV_AT_EPOCH":"4327","DECAY_DATE":null,"NORAD_CAT_ID":"48638","ECCENTRICITY":"0.00014060","EPOCH":"2022-03-07T17:01:42.909024","TLE_LINE1":"1 48638U 21044A   22066.70952441 -.00001013  00000-0 -49085-4 0  9995","GP_ID":"198189543","COUNTRY_CODE":"US","TIME_SYSTEM":"UTC","APOAPSIS":"548.184"},{"APOAPSIS":"548.149","TIME_SYSTEM":"UTC","ECCENTRICITY":"0.00013330","EPOCH":"2022-03-07T18:16:01.908480","COUNTRY_CODE":"US","TLE_LINE1":"1 48639U 21044B   22066.76113320 -.00001076  00000-0 -53341-4 0  9996","GP_ID":"198190794","PERIAPSIS":"546.303","REV_AT_EPOCH":"4328","NORAD_CAT_ID":"48639","DECAY_DATE":null,"MEAN_MOTION_DOT":"-0.00001076","OBJECT_ID":"2021-044B","MEAN_MOTION":"15.06396001","ELEMENT_SET_NO":"999","SITE":"AFETR","LAUNCH_DATE":"2021-05-26","REF_FRAME":"TEME","SEMIMAJOR_AXIS":"6925.361","ARG_OF_PERICENTER":"77.4141","PERIOD":"95.592","MEAN_ANOMALY":"282.6997","MEAN_MOTION_DDOT":"0.0000000000000","OBJECT_TYPE":"PAYLOAD","RA_OF_ASC_NODE":"203.9582","FILE":"3349821","CLASSIFICATION_TYPE":"U","MEAN_ELEMENT_THEORY":"SGP4","CENTER_NAME":"EARTH","OBJECT_NAME":"STARLINK-2739","INCLINATION":"53.0555","BSTAR":"-0.00005334100000","EPHEMERIS_TYPE":"0","RCS_SIZE":"LARGE","TLE_LINE2":"2 48639  53.0555 203.9582 0001333  77.4141 282.6997 15.06396001 43289"},{"OBJECT_ID":"2021-044C","MEAN_MOTION_DOT":"-0.00005501","LAUNCH_DATE":"2021-05-26","REF_FRAME":"TEME","SEMIMAJOR_AXIS":"6925.373","MEAN_MOTION":"15.06392060","ELEMENT_SET_NO":"999","SITE":"AFETR","PERIAPSIS":"546.162","REV_AT_EPOCH":"4329","DECAY_DATE":null,"NORAD_CAT_ID":"48640","ECCENTRICITY":"0.00015530","EPOCH":"2022-03-07T20:39:20.124576","TLE_LINE1":"1 48640U 21044C   22066.86064959 -.00005501  00000-0 -35076-3 0  9993","COUNTRY_CODE":"US","GP_ID":"198190545","TIME_SYSTEM":"UTC","APOAPSIS":"548.313","EPHEMERIS_TYPE":"0","RCS_SIZE":"LARGE","BSTAR":"-0.00035076000000","TLE_LINE2":"2 48640  53.0537 203.5171 0001553  68.7866 291.3289 15.06392060 43295","CLASSIFICATION_TYPE":"U","MEAN_ELEMENT_THEORY":"SGP4","CENTER_NAME":"EARTH","INCLINATION":"53.0537","OBJECT_NAME":"STARLINK-2736","RA_OF_ASC_NODE":"203.5171","OBJECT_TYPE":"PAYLOAD","MEAN_MOTION_DDOT":"0.0000000000000","FILE":"3349821","PERIOD":"95.593","MEAN_ANOMALY":"291.3289","ARG_OF_PERICENTER":"68.7866"},{"APOAPSIS":"548.187","TIME_SYSTEM":"UTC","COUNTRY_CODE":"US","TLE_LINE1":"1 48641U 21044D   22066.83349625 -.00003299  00000-0 -20272-3 0  9991","GP_ID":"198189293","ECCENTRICITY":"0.00013610","EPOCH":"2022-03-07T20:00:14.076000","NORAD_CAT_ID":"48641","DECAY_DATE":null,"PERIAPSIS":"546.302","REV_AT_EPOCH":"4322","ELEMENT_SET_NO":"999","MEAN_MOTION":"15.06389776","SITE":"AFETR","LAUNCH_DATE":"2021-05-26","SEMIMAJOR_AXIS":"6925.380","REF_FRAME":"TEME","OBJECT_ID":"2021-044D","MEAN_MOTION_DOT":"-0.00003299","ARG_OF_PERICENTER":"71.7473","PERIOD":"95.593","MEAN_ANOMALY":"288.3663","FILE":"3349821","MEAN_MOTION_DDOT":"0.0000000000000","OBJECT_TYPE":"PAYLOAD","RA_OF_ASC_NODE":"208.6387","MEAN_ELEMENT_THEORY":"SGP4","CENTER_NAME":"EARTH","OBJECT_NAME":"STARLINK-2754","INCLINATION":"53.0541","CLASSIFICATION_TYPE":"U","TLE_LINE2":"2 48641  53.0541 208.6387 0001361  71.7473 288.3663 15.06389776 43226","BSTAR":"-0.00020272000000","EPHEMERIS_TYPE":"0","RCS_SIZE":"LARGE"}];
